[{"OBJECT_NAME":"LEMUR-2-FURIAUS","OBJECT_ID":"2017-042R","EPOCH":"2026-03-09T23:04:27.745536","MEAN_MOTION":15.26272951,"ECCENTRICITY":0.00075374,"INCLINATION":97.3753,"RA_OF_ASC_NODE":248.499,"ARG_OF_PERICENTER":55.8686,"MEAN_ANOMALY":304.3266,"EPHEMERIS_TYPE":0,"CLASSIFICATION_TYPE":"U","NORAD_CAT_ID":42840,"ELEMENT_SET_NO":999,"REV_AT_EPOCH":47305,"BSTAR":0.00099966194,"MEAN_MOTION_DOT":0.00025928,"MEAN_MOTION_DDOT":0},{"OBJECT_NAME":"STARLINK-30875","OBJECT_ID":"2023-170U","EPOCH":"2026-03-09T08:56:08.040192","MEAN_MOTION":15.26737349,"ECCENTRICITY":3.542e-5,"INCLINATION":42.9974,"RA_OF_ASC_NODE":195.7665,"ARG_OF_PERICENTER":217.8694,"MEAN_ANOMALY":142.2133,"EPHEMERIS_TYPE":0,"CLASSIFICATION_TYPE":"U","NORAD_CAT_ID":58224,"ELEMENT_SET_NO":999,"REV_AT_EPOCH":13025,"BSTAR":1.4946549e-5,"MEAN_MOTION_DOT":1.42e-6,"MEAN_MOTION_DDOT":0}]
